IRIDIUM 150             
1 43257U 18030J   23237.43463022  .00000337  00000+0  11323-3 0  9999
2 43257  86.4019 359.5741 0002512  90.6971 269.4513 14.34217922282992
IRIDIUM 143             
1 43258U 18030K   23237.34582843  .00000393  00000+0  13332-3 0  9997
2 43258  86.4023 359.6623 0002109  88.0356 272.1081 14.34216924282912
IRIDIUM 161             
1 43478U 18047C   23237.30991463  .00000455  00000+0  12926-3 0  9994
2 43478  86.4554 157.6568 0002372  84.7125 275.4347 14.43294448277022
IRIDIUM 152             
1 43479U 18047D   23237.31854827  .00000346  00000+0  11654-3 0  9994
2 43479  86.4027 157.5134 0002139  78.5281 281.6155 14.34217382275308
IRIDIUM 147             
1 43480U 18047E   23237.32488691  .00000339  00000+0  11382-3 0  9999
2 43480  86.4029 157.4981 0002182  88.3502 271.7944 14.34219579275300
IRIDIUM 110             
1 43481U 18047F   23237.33123051  .00000310  00000+0  10353-3 0  9993
2 43481  86.4034 157.5606 0002474  88.1119 272.0360 14.34216431275296
IRIDIUM 162             
1 43482U 18047G   23237.30363377  .00000460  00000+0  13072-3 0  9995
2 43482  86.4553 157.5635 0002318  84.6366 275.5099 14.43292378277010
IRIDIUM 160             
1 43569U 18061A   23237.20729804  .00000282  00000+0  93776-4 0  9999
2 43569  86.3980 126.0158 0001888  84.4142 275.7269 14.34214960266178
